NORAD_CAT_ID,OBJECT_NAME,OBJECT_TYPE,EPOCH,MEAN_MOTION,ECCENTRICITY,INCLINATION,RA_OF_ASC_NODE,ARG_OF_PERICENTER,MEAN_ANOMALY,BSTAR,MEAN_MOTION_DOT,MEAN_MOTION_DDOT,TLE_LINE0,TLE_LINE1,TLE_LINE2,SEMIMAJOR_AXIS,PERIOD,APOGEE,PERIGEE,DECAYED
53782.0,STARLINK-4679,PAYLOAD,2023-10-04 19:00:18,15.08839538,0.0001596,53.2154,295.6341,97.0675,263.0499,0.00015731,2.216e-05,0.0,0 STARLINK-4679,1 53782U 22111K   23277.79187814  .00002216  00000-0  15731-3 0  9999,2 53782  53.2154 295.6341 0001596  97.0675 263.0499 15.08839538 59807,6917.882,95.438,540.851,538.643,0.0
53782.0,STARLINK-4679,PAYLOAD,2023-10-05 10:54:09,15.08859749,0.0001763,53.2159,292.6617,89.4095,270.7099,0.00094237,0.0001475,0.0,0 STARLINK-4679,1 53782U 22111K   23278.45427558  .00014750  00000-0  94237-3 0  9999,2 53782  53.2159 292.6617 0001763  89.4095 270.7099 15.08859749 59090,6917.82,95.436,540.905,538.465,0.0
53782.0,STARLINK-4679,PAYLOAD,2023-10-05 12:29:32,15.08864505,0.0001753,53.2157,292.3643,89.1953,270.924,0.00096657,0.00015139,0.0,0 STARLINK-4679,1 53782U 22111K   23278.52051405  .00015139  00000-0  96657-3 0  9991,2 53782  53.2157 292.3643 0001753  89.1953 270.9240 15.08864505 59910,6917.805,95.436,540.883,538.458,0.0
53782.0,STARLINK-4679,PAYLOAD,2023-10-06 07:34:10,15.08852158,0.0001608,53.2163,288.7963,92.2325,267.8851,0.00077174,0.0001202,0.0,0 STARLINK-4679,1 53782U 22111K   23279.31539836  .00012020  00000-0  77174-3 0  9997,2 53782  53.2163 288.7963 0001608  92.2325 267.8851 15.08852158 59226,6917.843,95.437,540.821,538.596,0.0
53782.0,STARLINK-4679,PAYLOAD,2023-10-06 12:20:19,15.08854115,0.0001614,53.2165,287.9051,92.9288,267.1889,0.0014164,0.00022335,0.0,0 STARLINK-4679,1 53782U 22111K   23279.51411831  .00022335  00000-0  14164-2 0  9992,2 53782  53.2165 287.9051 0001614  92.9288 267.1889 15.08854115 60062,6917.837,95.437,540.819,538.586,0.0
53782.0,STARLINK-4679,PAYLOAD,2023-10-07 01:03:25,15.08839842,0.0002519,53.2159,285.5247,97.0475,263.0804,0.0013678,0.00021548,0.0,0 STARLINK-4679,1 53782U 22111K   23280.04404293  .00021548  00000-0  13678-2 0  9990,2 53782  53.2159 285.5247 0002519  97.0475 263.0804 15.08839842 59335,6917.881,95.438,541.488,538.003,0.0
53782.0,STARLINK-4679,PAYLOAD,2023-10-07 12:11:06,15.088549,0.0001648,53.2161,283.4437,100.9909,259.1268,0.0012819,0.00020181,0.0,0 STARLINK-4679,1 53782U 22111K   23280.50771977  .00020181  00000-0  12819-2 0  9995,2 53782  53.2161 283.4437 0001648 100.9909 259.1268 15.08854900 60215,6917.835,95.437,540.84,538.56,0.0
53782.0,STARLINK-4679,PAYLOAD,2023-10-08 02:29:35,15.088383,0.0001593,53.2162,280.768,112.1757,247.9404,0.0009918,0.00015531,0.0,0 STARLINK-4679,1 53782U 22111K   23281.10388312  .00015531  00000-0  99180-3 0  9999,2 53782  53.2162 280.7680 0001593 112.1757 247.9404 15.08838300 59492,6917.886,95.438,540.853,538.649,0.0
53782.0,STARLINK-4679,PAYLOAD,2023-10-08 10:26:30,15.08863079,0.0001565,53.2157,279.2823,95.7043,264.4127,0.0018003,0.00028498,0.0,0 STARLINK-4679,1 53782U 22111K   23281.43507995  .00028498  00000-0  18003-2 0  9995,2 53782  53.2157 279.2823 0001565  95.7043 264.4127 15.08863079 59544,6917.81,95.436,540.757,538.592,0.0
53782.0,STARLINK-4679,PAYLOAD,2023-10-08 16:48:03,15.08851746,0.0001868,53.2165,278.0902,90.3336,269.7871,0.0012536,0.00019726,0.0,0 STARLINK-4679,1 53782U 22111K   23281.70004227  .00019726  00000-0  12536-2 0  9994,2 53782  53.2165 278.0902 0001868  90.3336 269.7871 15.08851746 59586,6917.844,95.437,541.002,538.417,0.0
53782.0,STARLINK-4679,PAYLOAD,2023-10-09 02:20:22,15.08853321,0.0002107,53.2147,276.3102,94.5179,265.6053,0.0011174,0.00017547,0.0,0 STARLINK-4679,1 53782U 22111K   23282.09748214  .00017547  00000-0  11174-2 0  9994,2 53782  53.2147 276.3102 0002107  94.5179 265.6053 15.08853321 59642,6917.84,95.437,541.162,538.247,0.0
53782.0,STARLINK-4679,PAYLOAD,2023-10-09 07:06:31,15.08846544,0.0001706,53.2161,275.4172,97.118,263.0006,0.00072842,0.00011326,0.0,0 STARLINK-4679,1 53782U 22111K   23282.29620161  .00011326  00000-0  72842-3 0  9995,2 53782  53.2161 275.4172 0001706  97.1180 263.0006 15.08846544 59672,6917.86,95.437,540.906,538.545,0.0
53782.0,STARLINK-4679,PAYLOAD,2023-10-09 08:41:54,15.0885081,0.0001677,53.2161,275.1202,97.8774,262.2409,0.00084213,0.00013144,0.0,0 STARLINK-4679,1 53782U 22111K   23282.36244056  .00013144  00000-0  84213-3 0  9993,2 53782  53.2161 275.1202 0001677  97.8774 262.2409 15.08850810 60497,6917.847,95.437,540.872,538.552,0.0
53782.0,STARLINK-4679,PAYLOAD,2023-10-10 11:43:28,15.08860867,0.0001428,53.2148,270.063,96.2611,263.8544,0.001089,0.00017096,0.0,0 STARLINK-4679,1 53782U 22111K   23283.48851983  .00017096  00000-0  10890-2 0  9999,2 53782  53.2148 270.0630 0001428  96.2611 263.8544 15.08860867 59856,6917.817,95.436,540.669,538.694,0.0
53782.0,STARLINK-4679,PAYLOAD,2023-10-10 16:29:37,15.08833219,0.0001336,53.2154,269.1714,101.9572,258.157,7.4118e-05,8.92e-06,0.0,0 STARLINK-4679,1 53782U 22111K   23283.68724464  .00000892  00000-0  74118-4 0  9995,2 53782  53.2154 269.1714 0001336 101.9572 258.1570 15.08833219 59883,6917.901,95.438,540.69,538.842,0.0
53782.0,STARLINK-4679,PAYLOAD,2023-10-11 05:12:43,15.08844422,0.0001491,53.2149,266.7923,99.6297,260.4864,0.0012646,0.00019898,0.0,0 STARLINK-4679,1 53782U 22111K   23284.21716679  .00019898  00000-0  12646-2 0  9996,2 53782  53.2149 266.7923 0001491  99.6297 260.4864 15.08844422 59960,6917.867,95.437,540.763,538.7,0.0
53782.0,STARLINK-4679,PAYLOAD,2023-10-11 16:20:25,15.08834897,0.0001731,53.2159,264.7092,99.5013,260.6175,0.0007309,0.00011362,0.0,0 STARLINK-4679,1 53782U 22111K   23284.68085196  .00011362  00000-0  73090-3 0  9999,2 53782  53.2159 264.7092 0001731  99.5013 260.6175 15.08834897 60030,6917.896,95.438,540.958,538.563,0.0
53782.0,STARLINK-4679,PAYLOAD,2023-10-12 09:49:40,15.0885044,0.0001519,53.216,261.438,104.0798,256.0363,0.0010523,0.00016504,0.0,0 STARLINK-4679,1 53782U 22111K   23285.40949124  .00016504  00000-0  10523-2 0  9994,2 53782  53.2160 261.4380 0001519 104.0798 256.0363 15.08850440 60953,6917.848,95.437,540.764,538.663,0.0
53782.0,STARLINK-4679,PAYLOAD,2023-10-12 16:11:13,15.08838535,0.0001876,53.2166,260.2491,93.0602,267.0605,0.00047786,7.325e-05,0.0,0 STARLINK-4679,1 53782U 22111K   23285.67445617  .00007325  00000-0  47786-3 0  9994,2 53782  53.2166 260.2491 0001876  93.0602 267.0605 15.08838535 60183,6917.885,95.438,541.048,538.452,0.0
53782.0,STARLINK-4679,PAYLOAD,2023-10-13 08:05:03,15.08857425,0.0001483,53.2162,257.2745,91.0134,269.1028,0.0012117,0.00019058,0.0,0 STARLINK-4679,1 53782U 22111K   23286.33685070  .00019058  00000-0  12117-2 0  9992,2 53782  53.2162 257.2745 0001483  91.0134 269.1028 15.08857425 60281,6917.827,95.436,540.718,538.666,0.0
53782.0,STARLINK-4679,PAYLOAD,2023-10-14 03:09:41,15.08859747,0.0001438,53.2166,253.7032,90.7853,269.3304,0.00082201,0.00012826,0.0,0 STARLINK-4679,1 53782U 22111K   23287.13172555  .00012826  00000-0  82201-3 0  9998,2 53782  53.2166 253.7032 0001438  90.7853 269.3304 15.08859747 60401,6917.82,95.436,540.68,538.69,0.0
53782.0,STARLINK-4679,PAYLOAD,2023-10-14 20:38:55,15.08853233,0.0001433,53.2165,250.4332,92.7861,267.3295,0.00020295,2.945e-05,0.0,0 STARLINK-4679,1 53782U 22111K   23287.86036087  .00002945  00000-0  20295-3 0  9993,2 53782  53.2165 250.4332 0001433  92.7861 267.3295 15.08853233 60516,6917.84,95.437,540.696,538.714,0.0
53782.0,STARLINK-4679,PAYLOAD,2023-10-14 22:14:19,15.08842437,0.000308,53.2181,250.1363,82.4262,277.708,9.1946e-05,1.175e-05,0.0,0 STARLINK-4679,1 53782U 22111K   23287.92661227  .00001175  00000-0  91946-4 0  9996,2 53782  53.2181 250.1363 0003080  82.4262 277.7080 15.08842437 61338,6917.873,95.437,541.869,537.607,0.0
53782.0,STARLINK-4679,PAYLOAD,2023-10-15 04:35:52,15.0882107,0.0001621,53.2178,248.9488,100.6354,259.482,-0.00031476,-5.291e-05,0.0,0 STARLINK-4679,1 53782U 22111K   23288.19157467 -.00005291  00000-0 -31476-3 0  9998,2 53782  53.2178 248.9488 0001621 100.6354 259.4820 15.08821070 60564,6917.938,95.439,540.925,538.682,0.0
53782.0,STARLINK-4679,PAYLOAD,2023-10-15 14:08:11,15.08832475,0.0001565,53.2182,247.1658,97.6668,262.4502,0.00012481,1.699e-05,0.0,0 STARLINK-4679,1 53782U 22111K   23288.58901657  .00001699  00000-0  12481-3 0  9990,2 53782  53.2182 247.1658 0001565  97.6668 262.4502 15.08832475 61438,6917.903,95.438,540.851,538.686,0.0
53782.0,STARLINK-4679,PAYLOAD,2023-10-15 20:29:43,15.08838151,0.0001439,53.2181,245.9757,96.6655,263.4501,0.00066628,0.00010331,0.0,0 STARLINK-4679,1 53782U 22111K   23288.85397900  .00010331  00000-0  66628-3 0  9995,2 53782  53.2181 245.9757 0001439  96.6655 263.4501 15.08838151 60669,6917.886,95.438,540.747,538.756,0.0
53782.0,STARLINK-4679,PAYLOAD,2023-10-16 07:37:25,15.08870659,0.0001485,53.218,243.8957,96.5116,263.6045,0.0014655,0.00023132,0.0,0 STARLINK-4679,1 53782U 22111K   23289.31765346  .00023132  00000-0  14655-2 0  9995,2 53782  53.2180 243.8957 0001485  96.5116 263.6045 15.08870659 60731,6917.787,95.436,540.679,538.624,0.0
53782.0,STARLINK-4679,PAYLOAD,2023-10-18 02:32:50,15.08841487,0.0001527,53.2158,235.8648,106.1915,253.9245,0.00078599,0.00012244,0.0,0 STARLINK-4679,1 53782U 22111K   23291.10613426  .00012244  00000-0  78599-3 0  9996,2 53782  53.2158 235.8648 0001527 106.1915 253.9245 15.08841487 61817,6917.876,95.437,540.797,538.684,0.0
53782.0,STARLINK-4679,PAYLOAD,2023-10-18 04:08:13,15.08843292,0.000145,53.216,235.5676,103.6234,256.492,0.00082402,0.00012852,0.0,0 STARLINK-4679,1 53782U 22111K   23291.17237395  .00012852  00000-0  82402-3 0  9993,2 53782  53.2160 235.5676 0001450 103.6234 256.4920 15.08843292 61015,6917.87,95.437,540.738,538.732,0.0
53782.0,STARLINK-4679,PAYLOAD,2023-10-18 13:40:32,15.08841096,0.000146,53.2164,233.7841,98.6487,261.467,0.00061509,9.515e-05,0.0,0 STARLINK-4679,1 53782U 22111K   23291.56981800  .00009515  00000-0  61509-3 0  9990,2 53782  53.2164 233.7841 0001460  98.6487 261.4670 15.08841096 61071,6917.877,95.437,540.752,538.732,0.0
